KUIPER-00250            
1 67155U 25301Y   26012.29296313  .00032992  00000+0  92772-3 0  9995
2 67155  51.8735 337.7707 0006567 180.4049 179.6933 15.36181931  5099
KUIPER-00251            
1 67156U 25301Z   26012.30506472  .00031106  00000+0  89878-3 0  9997
2 67156  51.8684 337.8425 0009265 189.8209 170.2597 15.35340561  5256
KUIPER-00252            
1 67157U 25301AA  26011.92235542  .00031198  00000+0  91166-3 0  9996
2 67157  51.8675 339.7737 0009943 198.6302 161.4321 15.34978676  5002
KUIPER-00261            
1 67158U 25301AB  26012.29214237  .00032545  00000+0  91393-3 0  9995
2 67158  51.8725 337.7624 0006881 174.5049 185.6014 15.36228901  5065
KUIPER-00265            
1 67159U 25301AC  26012.25002315 -.01087397  00000+0 -49896-1 0  9991
2 67159  51.8809 338.2571 0001090 166.1932 197.9212 15.23009998  5088
GALILEO 33              
1 67160U 25302A   25352.14605887 -.00000007  00000+0  00000+0 0  9994
2 67160  54.2406 107.2544 0008423 237.6458 122.2317  1.72906186    28
GALILEO B               
1 67161U 25302B   26011.42644868 -.00000033  00000+0  00000+0 0  9990
2 67161  54.2421 106.5099 0005083 260.1895  99.7577  1.72972425   450
GALILEO 33 (139)        
1 67162U 25302C   25356.18244914  .00000006  00000+0  00000+0 0  9992
2 67162  54.2447 107.1379 0000312 196.8367 159.4994  1.73130437   127
STARLINK-35755          
1 67163U 25303A   25351.60835648 -.00002699  85337-5  00000+0 0  9999
2 67163  43.0100  69.0834 0011500 323.6500   9.4800 16.01284782    10
STARLINK-36201          
1 67164U 25303B   25351.60835648 -.00002699  85337-5  00000+0 0  9990
2 67164  43.0100  69.0834 0011500 323.6500   9.4800 16.01284782    11
STARLINK-36186          
1 67165U 25303C   25351.60835648 -.00002699  85337-5  00000+0 0  9991
2 67165  43.0100  69.0834 0011500 323.6500   9.4800 16.01284782    12
STARLINK-36174          
1 67166U 25303D   25351.60835648 -.00002699  85337-5  00000+0 0  9992
2 67166  43.0100  69.0834 0011500 323.6500   9.4800 16.01284782    13
